{"fetched_at":"2026-07-13T07:48:41.766Z","source":"https://celestrak.org/NORAD/elements/gp.php?NAME=SENTINEL&FORMAT=JSON","constellation":"sentinel-2","records":[{"OBJECT_NAME":"SENTINEL-2A","OBJECT_ID":"2015-028A","EPOCH":"2026-07-12T19:25:05.973024","CLASSIFICATION_TYPE":"U","MEAN_MOTION":14.30814069,"ECCENTRICITY":0.0001267,"INCLINATION":98.5682,"RA_OF_ASC_NODE":268.296,"ARG_OF_PERICENTER":94.876,"MEAN_ANOMALY":265.2568,"EPHEMERIS_TYPE":0,"NORAD_CAT_ID":40697,"ELEMENT_SET_NO":999,"REV_AT_EPOCH":57739,"BSTAR":0.000044741,"MEAN_MOTION_DOT":7.4e-7,"MEAN_MOTION_DDOT":0},{"OBJECT_NAME":"SENTINEL-2B","OBJECT_ID":"2017-013A","EPOCH":"2026-07-12T19:14:44.951424","CLASSIFICATION_TYPE":"U","MEAN_MOTION":14.30814679,"ECCENTRICITY":0.0001212,"INCLINATION":98.569,"RA_OF_ASC_NODE":268.2138,"ARG_OF_PERICENTER":89.7337,"MEAN_ANOMALY":270.3985,"EPHEMERIS_TYPE":0,"NORAD_CAT_ID":42063,"ELEMENT_SET_NO":999,"REV_AT_EPOCH":48830,"BSTAR":0.00003705,"MEAN_MOTION_DOT":5.3e-7,"MEAN_MOTION_DDOT":0},{"OBJECT_NAME":"SENTINEL-2C","OBJECT_ID":"2024-157A","EPOCH":"2026-07-12T18:24:25.350912","CLASSIFICATION_TYPE":"U","MEAN_MOTION":14.30815246,"ECCENTRICITY":0.0000949,"INCLINATION":98.5685,"RA_OF_ASC_NODE":268.1861,"ARG_OF_PERICENTER":101.0716,"MEAN_ANOMALY":259.0574,"EPHEMERIS_TYPE":0,"NORAD_CAT_ID":60989,"ELEMENT_SET_NO":999,"REV_AT_EPOCH":9664,"BSTAR":0.000030292,"MEAN_MOTION_DOT":3.6e-7,"MEAN_MOTION_DDOT":0}]}
